start=new Date('2023-01-28T00:00:00.000Z').valueOf();
sats=[{"REV_AT_EPOCH":"15397","APOAPSIS":"548.026","LAUNCH_DATE":"2020-04-22","INCLINATION":"53.0552","MEAN_MOTION":"15.06441171","DECAY_DATE":null,"FILE":"3762956","SITE":"AFETR","TLE_LINE2":"2 45563  53.0552 151.3992 0001356  82.8254 277.2889 15.06441171153977","RA_OF_ASC_NODE":"151.3992","PERIAPSIS":"546.148","OBJECT_NAME":"STARLINK-1355","SEMIMAJOR_AXIS":"6925.222","COUNTRY_CODE":"US","BSTAR":"-0.00058103000000","REF_FRAME":"TEME","EPHEMERIS_TYPE":"0","RCS_SIZE":"LARGE","MEAN_MOTION_DOT":"-0.00008935","GP_ID":"223802605","CLASSIFICATION_TYPE":"U","OBJECT_ID":"2020-025AJ","MEAN_ELEMENT_THEORY":"SGP4","TIME_SYSTEM":"UTC","MEAN_ANOMALY":"277.2889","OBJECT_TYPE":"PAYLOAD","NORAD_CAT_ID":"45563","ARG_OF_PERICENTER":"82.8254","ECCENTRICITY":"0.00013560","MEAN_MOTION_DDOT":"0.0000000000000","EPOCH":"2023-01-27T13:23:00.744000","CENTER_NAME":"EARTH","TLE_LINE1":"1 45563U 20025AJ  23027.55764750 -.00008935  00000-0 -58103-3 0  9992","PERIOD":"95.590","ELEMENT_SET_NO":"999"},{"CLASSIFICATION_TYPE":"U","RCS_SIZE":"LARGE","MEAN_MOTION_DOT":"0.00000591","GP_ID":"223833787","MEAN_MOTION_DDOT":"0.0000000000000","ECCENTRICITY":"0.00012630","ARG_OF_PERICENTER":"96.3598","EPOCH":"2023-01-27T14:53:16.041120","CENTER_NAME":"EARTH","PERIOD":"95.592","ELEMENT_SET_NO":"999","TLE_LINE1":"1 45564U 20025AK  23027.62032455  .00000591  00000-0  58579-4 0  9997","OBJECT_ID":"2020-025AK","MEAN_ELEMENT_THEORY":"SGP4","TIME_SYSTEM":"UTC","OBJECT_TYPE":"PAYLOAD","MEAN_ANOMALY":"263.7535","NORAD_CAT_ID":"45564","DECAY_DATE":null,"FILE":"3763218","RA_OF_ASC_NODE":"151.1229","TLE_LINE2":"2 45564  53.0531 151.1229 0001263  96.3598 263.7535 15.06401978153984","SITE":"AFETR","REV_AT_EPOCH":"15398","APOAPSIS":"548.082","LAUNCH_DATE":"2020-04-22","INCLINATION":"53.0531","MEAN_MOTION":"15.06401978","COUNTRY_CODE":"US","REF_FRAME":"TEME","BSTAR":"0.00005857900000","EPHEMERIS_TYPE":"0","PERIAPSIS":"546.333","SEMIMAJOR_AXIS":"6925.342","OBJECT_NAME":"STARLINK-1356"},{"GP_ID":"223834036","MEAN_MOTION_DOT":"0.00001000","RCS_SIZE":"LARGE","CLASSIFICATION_TYPE":"U","NORAD_CAT_ID":"45565","OBJECT_TYPE":"PAYLOAD","MEAN_ANOMALY":"277.1888","MEAN_ELEMENT_THEORY":"SGP4","TIME_SYSTEM":"UTC","OBJECT_ID":"2020-025AL","PERIOD":"95.592","ELEMENT_SET_NO":"999","TLE_LINE1":"1 45565U 20025AL  23027.61295530  .00001000  00000-0  86039-4 0  9990","CENTER_NAME":"EARTH","EPOCH":"2023-01-27T14:42:39.337920","MEAN_MOTION_DDOT":"0.0000000000000","ARG_OF_PERICENTER":"82.9234","ECCENTRICITY":"0.00011700","INCLINATION":"53.0540","MEAN_MOTION":"15.06397338","LAUNCH_DATE":"2020-04-22","REV_AT_EPOCH":"15398","APOAPSIS":"548.032","RA_OF_ASC_NODE":"151.1630","SITE":"AFETR","TLE_LINE2":"2 45565  53.0540 151.1630 0001170  82.9234 277.1888 15.06397338153980","FILE":"3763218","DECAY_DATE":null,"SEMIMAJOR_AXIS":"6925.357","OBJECT_NAME":"STARLINK-1357","PERIAPSIS":"546.411","EPHEMERIS_TYPE":"0","REF_FRAME":"TEME","BSTAR":"0.00008603900000","COUNTRY_CODE":"US"},{"EPOCH":"2023-01-27T15:03:53.083008","ECCENTRICITY":"0.00012560","ARG_OF_PERICENTER":"98.1223","MEAN_MOTION_DDOT":"0.0000000000000","TLE_LINE1":"1 45566U 20025AM  23027.62769772  .00002255  00000-0  17023-3 0  9995","PERIOD":"95.592","ELEMENT_SET_NO":"999","CENTER_NAME":"EARTH","TIME_SYSTEM":"UTC","MEAN_ELEMENT_THEORY":"SGP4","OBJECT_ID":"2020-025AM","NORAD_CAT_ID":"45566","MEAN_ANOMALY":"261.9909","OBJECT_TYPE":"PAYLOAD","CLASSIFICATION_TYPE":"U","MEAN_MOTION_DOT":"0.00002255","RCS_SIZE":"LARGE","GP_ID":"223834788","COUNTRY_CODE":"US","EPHEMERIS_TYPE":"0","BSTAR":"0.00017023000000","REF_FRAME":"TEME","OBJECT_NAME":"STARLINK-1358","SEMIMAJOR_AXIS":"6925.346","PERIAPSIS":"546.341","FILE":"3763218","DECAY_DATE":null,"SITE":"AFETR","TLE_LINE2":"2 45566  53.0526 151.0883 0001256  98.1223 261.9909 15.06400982153981","RA_OF_ASC_NODE":"151.0883","REV_AT_EPOCH":"15398","APOAPSIS":"548.080","INCLINATION":"53.0526","MEAN_MOTION":"15.06400982","LAUNCH_DATE":"2020-04-22"},{"DECAY_DATE":null,"FILE":"3762956","TLE_LINE2":"2 45567  53.0555 151.3313 0001230 100.0091 260.1037 15.06391220153980","SITE":"AFETR","RA_OF_ASC_NODE":"151.3313","REV_AT_EPOCH":"15398","APOAPSIS":"548.092","LAUNCH_DATE":"2020-04-22","INCLINATION":"53.0555","MEAN_MOTION":"15.06391220","COUNTRY_CODE":"US","BSTAR":"0.00004168100000","REF_FRAME":"TEME","EPHEMERIS_TYPE":"0","PERIAPSIS":"546.389","OBJECT_NAME":"STARLINK-1361","SEMIMAJOR_AXIS":"6925.375","CLASSIFICATION_TYPE":"U","RCS_SIZE":"LARGE","MEAN_MOTION_DOT":"0.00000339","GP_ID":"223802106","ECCENTRICITY":"0.00012300","ARG_OF_PERICENTER":"100.0091","MEAN_MOTION_DDOT":"0.0000000000000","EPOCH":"2023-01-27T13:44:16.500480","CENTER_NAME":"EARTH","TLE_LINE1":"1 45567U 20025AN  23027.57241320  .00000339  00000-0  41681-4 0  9993","PERIOD":"95.593","ELEMENT_SET_NO":"999","OBJECT_ID":"2020-025AN","TIME_SYSTEM":"UTC","MEAN_ELEMENT_THEORY":"SGP4","MEAN_ANOMALY":"260.1037","OBJECT_TYPE":"PAYLOAD","NORAD_CAT_ID":"45567"},{"DECAY_DATE":null,"FILE":"3763218","TLE_LINE2":"2 45568  53.0529 151.2261 0001257  68.2598 291.8525 15.06399410153981","SITE":"AFETR","RA_OF_ASC_NODE":"151.2261","REV_AT_EPOCH":"15398","APOAPSIS":"548.086","LAUNCH_DATE":"2020-04-22","INCLINATION":"53.0529","MEAN_MOTION":"15.06399410","COUNTRY_CODE":"US","BSTAR":"0.00005948500000","REF_FRAME":"TEME","EPHEMERIS_TYPE":"0","PERIAPSIS":"546.345","OBJECT_NAME":"STARLINK-1363","SEMIMAJOR_AXIS":"6925.350","CLASSIFICATION_TYPE":"U","RCS_SIZE":"LARGE","MEAN_MOTION_DOT":"0.00000605","GP_ID":"223834287","ECCENTRICITY":"0.00012570","ARG_OF_PERICENTER":"68.2598","MEAN_MOTION_DDOT":"0.0000000000000","EPOCH":"2023-01-27T15:41:05.170848","CENTER_NAME":"EARTH","TLE_LINE1":"1 45568U 20025AP  23027.65353207  .00000605  00000-0  59485-4 0  9998","ELEMENT_SET_NO":"999","PERIOD":"95.592","OBJECT_ID":"2020-025AP","MEAN_ELEMENT_THEORY":"SGP4","TIME_SYSTEM":"UTC","MEAN_ANOMALY":"291.8525","OBJECT_TYPE":"PAYLOAD","NORAD_CAT_ID":"45568"},{"FILE":"3763218","DECAY_DATE":null,"SITE":"AFETR","TLE_LINE2":"2 45569  53.0532 151.0344 0001604  79.3678 280.7492 15.06396375153981","RA_OF_ASC_NODE":"151.0344","REV_AT_EPOCH":"15398","APOAPSIS":"548.335","MEAN_MOTION":"15.06396375","INCLINATION":"53.0532","LAUNCH_DATE":"2020-04-22","COUNTRY_CODE":"US","EPHEMERIS_TYPE":"0","BSTAR":"0.00007980400000","REF_FRAME":"TEME","OBJECT_NAME":"STARLINK-1366","SEMIMAJOR_AXIS":"6925.360","PERIAPSIS":"546.114","CLASSIFICATION_TYPE":"U","MEAN_MOTION_DOT":"0.00000907","RCS_SIZE":"LARGE","GP_ID":"223834537","EPOCH":"2023-01-27T15:25:07.306752","ARG_OF_PERICENTER":"79.3678","ECCENTRICITY":"0.00016040","MEAN_MOTION_DDOT":"0.0000000000000","TLE_LINE1":"1 45569U 20025AQ  23027.64244568  .00000907  00000-0  79804-4 0  9999","ELEMENT_SET_NO":"999","PERIOD":"95.592","CENTER_NAME":"EARTH","MEAN_ELEMENT_THEORY":"SGP4","TIME_SYSTEM":"UTC","OBJECT_ID":"2020-025AQ","NORAD_CAT_ID":"45569","MEAN_ANOMALY":"280.7492","OBJECT_TYPE":"PAYLOAD"},{"LAUNCH_DATE":"2020-04-22","MEAN_MOTION":"15.06383774","INCLINATION":"53.0547","APOAPSIS":"548.067","REV_AT_EPOCH":"15337","RA_OF_ASC_NODE":"151.3523","SITE":"AFETR","TLE_LINE2":"2 45570  53.0547 151.3523 0001160  97.4013 262.7107 15.06383774153377","DECAY_DATE":null,"FILE":"3762798","PERIAPSIS":"546.460","SEMIMAJOR_AXIS":"6925.398","OBJECT_NAME":"STARLINK-1376","REF_FRAME":"TEME","BSTAR":"0.00002815800000","EPHEMERIS_TYPE":"0","COUNTRY_CODE":"US","GP_ID":"223779541","RCS_SIZE":"LARGE","MEAN_MOTION_DOT":"0.00000138","CLASSIFICATION_TYPE":"U","OBJECT_TYPE":"PAYLOAD","MEAN_ANOMALY":"262.7107","NORAD_CAT_ID":"45570","OBJECT_ID":"2020-025AR","TIME_SYSTEM":"UTC","MEAN_ELEMENT_THEORY":"SGP4","CENTER_NAME":"EARTH","PERIOD":"95.593","ELEMENT_SET_NO":"999","TLE_LINE1":"1 45570U 20025AR  23027.56873784  .00000138  00000-0  28158-4 0  9992","MEAN_MOTION_DDOT":"0.0000000000000","ARG_OF_PERICENTER":"97.4013","ECCENTRICITY":"0.00011600","EPOCH":"2023-01-27T13:38:58.949376"},{"EPOCH":"2023-01-27T15:37:03.298368","MEAN_MOTION_DDOT":"0.0000000000000","ECCENTRICITY":"0.00017830","ARG_OF_PERICENTER":"109.3140","PERIOD":"95.592","ELEMENT_SET_NO":"999","TLE_LINE1":"1 45571U 20025AS  23027.65073262  .00000530  00000-0  54479-4 0  9997","CENTER_NAME":"EARTH","TIME_SYSTEM":"UTC","MEAN_ELEMENT_THEORY":"SGP4","OBJECT_ID":"2020-025AS","NORAD_CAT_ID":"45571","OBJECT_TYPE":"PAYLOAD","MEAN_ANOMALY":"250.8042","CLASSIFICATION_TYPE":"U","MEAN_MOTION_DOT":"0.00000530","RCS_SIZE":"LARGE","GP_ID":"223835039","COUNTRY_CODE":"US","EPHEMERIS_TYPE":"0","REF_FRAME":"TEME","BSTAR":"0.00005447900000","SEMIMAJOR_AXIS":"6925.338","OBJECT_NAME":"STARLINK-1261","PERIAPSIS":"545.969","FILE":"3763218","DECAY_DATE":null,"RA_OF_ASC_NODE":"140.9782","SITE":"AFETR","TLE_LINE2":"2 45571  53.0552 140.9782 0001783 109.3140 250.8042 15.06403287154144","REV_AT_EPOCH":"15414","APOAPSIS":"548.438","INCLINATION":"53.0552","MEAN_MOTION":"15.06403287","LAUNCH_DATE":"2020-04-22"},{"GP_ID":"223803355","MEAN_MOTION_DOT":"0.00001562","RCS_SIZE":"LARGE","CLASSIFICATION_TYPE":"U","NORAD_CAT_ID":"45572","OBJECT_TYPE":"PAYLOAD","MEAN_ANOMALY":"277.1075","MEAN_ELEMENT_THEORY":"SGP4","TIME_SYSTEM":"UTC","OBJECT_ID":"2020-025AT","ELEMENT_SET_NO":"999","PERIOD":"95.592","TLE_LINE1":"1 45572U 20025AT  23027.57701859  .00001562  00000-0  12375-3 0  9993","CENTER_NAME":"EARTH","EPOCH":"2023-01-27T13:50:54.406176","MEAN_MOTION_DDOT":"0.0000000000000","ARG_OF_PERICENTER":"83.0062","ECCENTRICITY":"0.00013000","INCLINATION":"53.0538","MEAN_MOTION":"15.06399744","LAUNCH_DATE":"2020-04-22","APOAPSIS":"548.115","REV_AT_EPOCH":"15412","RA_OF_ASC_NODE":"141.3189","TLE_LINE2":"2 45572  53.0538 141.3189 0001300  83.0062 277.1075 15.06399744154129","SITE":"AFETR","FILE":"3762956","DECAY_DATE":null,"SEMIMAJOR_AXIS":"6925.349","OBJECT_NAME":"STARLINK-1320","PERIAPSIS":"546.314","EPHEMERIS_TYPE":"0","REF_FRAME":"TEME","BSTAR":"0.00012375000000","COUNTRY_CODE":"US"}];
